CCSDS_OMM_VERS = 2.0
CREATION_DATE  = 
ORIGINATOR     = 

OBJECT_NAME    = CSG-3
OBJECT_ID      = 2026-001A
CENTER_NAME    = EARTH
REF_FRAME      = TEME
TIME_SYSTEM    = UTC
MEAN_ELEMENT_THEORY = SGP/SGP4

EPOCH          = 2026-01-31T23:06:23.851584
MEAN_MOTION    = 14.82159884
ECCENTRICITY   = .00011663
INCLINATION    = 97.8660
RA_OF_ASC_NODE = 217.5400
ARG_OF_PERICENTER = 83.5535
MEAN_ANOMALY   = 276.5811

EPHEMERIS_TYPE = 0
CLASSIFICATION_TYPE = U
NORAD_CAT_ID   = 67304
ELEMENT_SET_NO = 999
REV_AT_EPOCH   = 428
BSTAR          = -.59251282E-3
MEAN_MOTION_DOT = -.4766E-4
MEAN_MOTION_DDOT = 0

CCSDS_OMM_VERS = 2.0
CREATION_DATE  = 
ORIGINATOR     = 

OBJECT_NAME    = STARLINK-36490
OBJECT_ID      = 2026-002A
CENTER_NAME    = EARTH
REF_FRAME      = TEME
TIME_SYSTEM    = UTC
MEAN_ELEMENT_THEORY = SGP/SGP4

EPOCH          = 2026-01-31T22:00:03.000096
MEAN_MOTION    = 15.50518989
ECCENTRICITY   = .00018874
INCLINATION    = 42.9999
RA_OF_ASC_NODE = 174.1414
ARG_OF_PERICENTER = 279.0343
MEAN_ANOMALY   = 351.6913

EPHEMERIS_TYPE = 0
CLASSIFICATION_TYPE = U
NORAD_CAT_ID   = 67305
ELEMENT_SET_NO = 999
REV_AT_EPOCH   = 556
BSTAR          = .1487491E-2
MEAN_MOTION_DOT = .87719E-3
MEAN_MOTION_DDOT = 0

CCSDS_OMM_VERS = 2.0
CREATION_DATE  = 
ORIGINATOR     = 

OBJECT_NAME    = STARLINK-36488
OBJECT_ID      = 2026-002B
CENTER_NAME    = EARTH
REF_FRAME      = TEME
TIME_SYSTEM    = UTC
MEAN_ELEMENT_THEORY = SGP/SGP4

EPOCH          = 2026-01-31T22:00:03.000096
MEAN_MOTION    = 15.50523144
ECCENTRICITY   = .00015129
INCLINATION    = 42.9996
RA_OF_ASC_NODE = 174.1371
ARG_OF_PERICENTER = 278.6807
MEAN_ANOMALY   = 353.8313

EPHEMERIS_TYPE = 0
CLASSIFICATION_TYPE = U
NORAD_CAT_ID   = 67306
ELEMENT_SET_NO = 999
REV_AT_EPOCH   = 550
BSTAR          = .15505116E-2
MEAN_MOTION_DOT = .91507E-3
MEAN_MOTION_DDOT = 0

CCSDS_OMM_VERS = 2.0
CREATION_DATE  = 
ORIGINATOR     = 

OBJECT_NAME    = STARLINK-36481
OBJECT_ID      = 2026-002C
CENTER_NAME    = EARTH
REF_FRAME      = TEME
TIME_SYSTEM    = UTC
MEAN_ELEMENT_THEORY = SGP/SGP4

EPOCH          = 2026-01-31T22:00:03.000096
MEAN_MOTION    = 15.50517689
ECCENTRICITY   = .00018197
INCLINATION    = 42.9998
RA_OF_ASC_NODE = 174.1274
ARG_OF_PERICENTER = 280.6501
MEAN_ANOMALY   = 355.8277

EPHEMERIS_TYPE = 0
CLASSIFICATION_TYPE = U
NORAD_CAT_ID   = 67307
ELEMENT_SET_NO = 999
REV_AT_EPOCH   = 550
BSTAR          = .15120138E-2
MEAN_MOTION_DOT = .89184E-3
MEAN_MOTION_DDOT = 0

CCSDS_OMM_VERS = 2.0
CREATION_DATE  = 
ORIGINATOR     = 

OBJECT_NAME    = STARLINK-36449
OBJECT_ID      = 2026-002D
CENTER_NAME    = EARTH
REF_FRAME      = TEME
TIME_SYSTEM    = UTC
MEAN_ELEMENT_THEORY = SGP/SGP4

EPOCH          = 2026-01-31T22:00:03.000096
MEAN_MOTION    = 15.50519508
ECCENTRICITY   = .00017878
INCLINATION    = 42.9998
RA_OF_ASC_NODE = 174.1224
ARG_OF_PERICENTER = 281.1923
MEAN_ANOMALY   = 357.2032

EPHEMERIS_TYPE = 0
CLASSIFICATION_TYPE = U
NORAD_CAT_ID   = 67308
ELEMENT_SET_NO = 999
REV_AT_EPOCH   = 556
BSTAR          = .14768946E-2
MEAN_MOTION_DOT = .87086E-3
MEAN_MOTION_DDOT = 0

CCSDS_OMM_VERS = 2.0
CREATION_DATE  = 
ORIGINATOR     = 

OBJECT_NAME    = STARLINK-36482
OBJECT_ID      = 2026-002E
CENTER_NAME    = EARTH
REF_FRAME      = TEME
TIME_SYSTEM    = UTC
MEAN_ELEMENT_THEORY = SGP/SGP4

EPOCH          = 2026-01-31T22:00:03.000096
MEAN_MOTION    = 15.50521295
ECCENTRICITY   = .00018034
INCLINATION    = 42.9996
RA_OF_ASC_NODE = 174.0995
ARG_OF_PERICENTER = 281.9249
MEAN_ANOMALY   = 6.0513

EPHEMERIS_TYPE = 0
CLASSIFICATION_TYPE = U
NORAD_CAT_ID   = 67309
ELEMENT_SET_NO = 999
REV_AT_EPOCH   = 550
BSTAR          = .14606739E-2
MEAN_MOTION_DOT = .86121E-3
MEAN_MOTION_DDOT = 0

CCSDS_OMM_VERS = 2.0
CREATION_DATE  = 
ORIGINATOR     = 

OBJECT_NAME    = STARLINK-36491
OBJECT_ID      = 2026-002F
CENTER_NAME    = EARTH
REF_FRAME      = TEME
TIME_SYSTEM    = UTC
MEAN_ELEMENT_THEORY = SGP/SGP4

EPOCH          = 2026-01-31T22:00:03.000096
MEAN_MOTION    = 15.50516356
ECCENTRICITY   = .00016107
INCLINATION    = 42.9996
RA_OF_ASC_NODE = 174.1334
ARG_OF_PERICENTER = 278.3107
MEAN_ANOMALY   = 356.2557

EPHEMERIS_TYPE = 0
CLASSIFICATION_TYPE = U
NORAD_CAT_ID   = 67310
ELEMENT_SET_NO = 999
REV_AT_EPOCH   = 550
BSTAR          = .14864295E-2
MEAN_MOTION_DOT = .87646E-3
MEAN_MOTION_DDOT = 0

CCSDS_OMM_VERS = 2.0
CREATION_DATE  = 
ORIGINATOR     = 

OBJECT_NAME    = STARLINK-36495
OBJECT_ID      = 2026-002G
CENTER_NAME    = EARTH
REF_FRAME      = TEME
TIME_SYSTEM    = UTC
MEAN_ELEMENT_THEORY = SGP/SGP4

EPOCH          = 2026-01-31T22:00:03.000096
MEAN_MOTION    = 15.50481809
ECCENTRICITY   = .00015479
INCLINATION    = 42.9997
RA_OF_ASC_NODE = 174.1189
ARG_OF_PERICENTER = 276.4832
MEAN_ANOMALY   = 3.7681

EPHEMERIS_TYPE = 0
CLASSIFICATION_TYPE = U
NORAD_CAT_ID   = 67311
ELEMENT_SET_NO = 999
REV_AT_EPOCH   = 566
BSTAR          = .1754168E-2
MEAN_MOTION_DOT = .10358E-2
MEAN_MOTION_DDOT = 0

CCSDS_OMM_VERS = 2.0
CREATION_DATE  = 
ORIGINATOR     = 

OBJECT_NAME    = STARLINK-36485
OBJECT_ID      = 2026-002H
CENTER_NAME    = EARTH
REF_FRAME      = TEME
TIME_SYSTEM    = UTC
MEAN_ELEMENT_THEORY = SGP/SGP4

EPOCH          = 2026-01-31T22:00:03.000096
MEAN_MOTION    = 15.50610070
ECCENTRICITY   = .00018495
INCLINATION    = 42.9996
RA_OF_ASC_NODE = 174.1132
ARG_OF_PERICENTER = 280.0515
MEAN_ANOMALY   = 2.1581

EPHEMERIS_TYPE = 0
CLASSIFICATION_TYPE = U
NORAD_CAT_ID   = 67312
ELEMENT_SET_NO = 999
REV_AT_EPOCH   = 550
BSTAR          = -.11391245E-2
MEAN_MOTION_DOT = -.66678E-3
MEAN_MOTION_DDOT = 0

CCSDS_OMM_VERS = 2.0
CREATION_DATE  = 
ORIGINATOR     = 

OBJECT_NAME    = STARLINK-36445
OBJECT_ID      = 2026-002J
CENTER_NAME    = EARTH
REF_FRAME      = TEME
TIME_SYSTEM    = UTC
MEAN_ELEMENT_THEORY = SGP/SGP4

EPOCH          = 2026-01-31T22:00:03.000096
MEAN_MOTION    = 15.50517078
ECCENTRICITY   = .00016475
INCLINATION    = 42.9997
RA_OF_ASC_NODE = 174.1080
ARG_OF_PERICENTER = 281.7894
MEAN_ANOMALY   = 2.3583

EPHEMERIS_TYPE = 0
CLASSIFICATION_TYPE = U
NORAD_CAT_ID   = 67313
ELEMENT_SET_NO = 999
REV_AT_EPOCH   = 566
BSTAR          = .15077112E-2
MEAN_MOTION_DOT = .88923E-3
MEAN_MOTION_DDOT = 0

CCSDS_OMM_VERS = 2.0
CREATION_DATE  = 
ORIGINATOR     = 

OBJECT_NAME    = STARLINK-36476
OBJECT_ID      = 2026-002K
CENTER_NAME    = EARTH
REF_FRAME      = TEME
TIME_SYSTEM    = UTC
MEAN_ELEMENT_THEORY = SGP/SGP4

EPOCH          = 2026-01-31T22:00:03.000096
MEAN_MOTION    = 15.50509040
ECCENTRICITY   = .00019833
INCLINATION    = 42.9995
RA_OF_ASC_NODE = 174.1046
ARG_OF_PERICENTER = 280.2807
MEAN_ANOMALY   = 5.7820

EPHEMERIS_TYPE = 0
CLASSIFICATION_TYPE = U
NORAD_CAT_ID   = 67314
ELEMENT_SET_NO = 999
REV_AT_EPOCH   = 550
BSTAR          = .18191463E-2
MEAN_MOTION_DOT = .107591E-2
MEAN_MOTION_DDOT = 0

CCSDS_OMM_VERS = 2.0
CREATION_DATE  = 
ORIGINATOR     = 

OBJECT_NAME    = STARLINK-36463
OBJECT_ID      = 2026-002L
CENTER_NAME    = EARTH
REF_FRAME      = TEME
TIME_SYSTEM    = UTC
MEAN_ELEMENT_THEORY = SGP/SGP4

EPOCH          = 2026-01-31T22:00:03.000096
MEAN_MOTION    = 15.50520268
ECCENTRICITY   = .00018088
INCLINATION    = 42.9996
RA_OF_ASC_NODE = 174.0940
ARG_OF_PERICENTER = 282.0409
MEAN_ANOMALY   = 7.8439

EPHEMERIS_TYPE = 0
CLASSIFICATION_TYPE = U
NORAD_CAT_ID   = 67315
ELEMENT_SET_NO = 999
REV_AT_EPOCH   = 556
BSTAR          = .16518931E-2
MEAN_MOTION_DOT = .9758E-3
MEAN_MOTION_DDOT = 0

