CSG-3                   
1 67304U 26001A   26031.96277606 -.00004766  00000+0 -59251-3 0  9993
2 67304  97.8660 217.5400 0001166  83.5535 276.5811 14.82159884  4284
STARLINK-36490          
1 67305U 26002A   26031.91670139  .00087719  00000+0  14875-2 0  9997
2 67305  42.9999 174.1414 0001887 279.0343 351.6913 15.50518989  5564
STARLINK-36488          
1 67306U 26002B   26031.91670139  .00091507  00000+0  15505-2 0  9999
2 67306  42.9996 174.1371 0001512 278.6807 353.8313 15.50523144  5500
STARLINK-36481          
1 67307U 26002C   26031.91670139  .00089184  00000+0  15120-2 0  9991
2 67307  42.9998 174.1274 0001819 280.6501 355.8277 15.50517689  5507
STARLINK-36449          
1 67308U 26002D   26031.91670139  .00087086  00000+0  14769-2 0  9999
2 67308  42.9998 174.1224 0001787 281.1923 357.2032 15.50519508  5564
STARLINK-36482          
1 67309U 26002E   26031.91670139  .00086121  00000+0  14607-2 0  9990
2 67309  42.9996 174.0995 0001803 281.9249   6.0513 15.50521295  5508
STARLINK-36491          
1 67310U 26002F   26031.91670139  .00087646  00000+0  14864-2 0  9990
2 67310  42.9996 174.1334 0001610 278.3107 356.2557 15.50516356  5507
STARLINK-36495          
1 67311U 26002G   26031.91670139  .00103580  00000+0  17542-2 0  9993
2 67311  42.9997 174.1189 0001547 276.4832   3.7681 15.50481809  5663
STARLINK-36485          
1 67312U 26002H   26031.91670139 -.00066678  00000+0 -11391-2 0  9998
2 67312  42.9996 174.1132 0001849 280.0515   2.1581 15.50610070  5504
STARLINK-36445          
1 67313U 26002J   26031.91670139  .00088923  00000+0  15077-2 0  9999
2 67313  42.9997 174.1080 0001647 281.7894   2.3583 15.50517078  5667
STARLINK-36476          
1 67314U 26002K   26031.91670139  .00107591  00000+0  18191-2 0  9993
2 67314  42.9995 174.1046 0001983 280.2807   5.7820 15.50509040  5503
STARLINK-36463          
1 67315U 26002L   26031.91670139  .00097580  00000+0  16519-2 0  9992
2 67315  42.9996 174.0940 0001808 282.0409   7.8439 15.50520268  5561
